OBJECT_NAME,OBJECT_ID,EPOCH,MEAN_MOTION,ECCENTRICITY,INCLINATION,RA_OF_ASC_NODE,ARG_OF_PERICENTER,MEAN_ANOMALY,EPHEMERIS_TYPE,CLASSIFICATION_TYPE,NORAD_CAT_ID,ELEMENT_SET_NO,REV_AT_EPOCH,BSTAR,MEAN_MOTION_DOT,MEAN_MOTION_DDOT
FENGYUN 1C DEB,1999-025BVF,2021-02-24T16:48:58.126464,13.87641453,.017113,98.5933,26.2296,158.7864,202.0503,0,U,31467,999,38722,.58898E-3,.744E-5,0
FENGYUN 1C DEB,1999-025BVG,2021-02-27T08:29:36.441600,14.38620210,.0186518,98.2710,103.9975,65.7468,296.3082,0,U,31468,999,42172,.87176E-4,.28E-5,0
FENGYUN 1C DEB,1999-025BVK,2021-02-21T10:44:05.042112,13.98920278,.0178861,97.9808,126.5324,351.0096,8.7881,0,U,31471,999,39334,.45839E-3,.722E-5,0
FENGYUN 1C DEB,1999-025BVM,2021-03-01T08:54:34.180416,14.17616555,.0078401,98.7107,111.2501,37.7479,23.7819,0,U,31473,999,44689,.3656E-3,.723E-5,0
FENGYUN 1C DEB,1999-025BVN,2021-02-28T06:21:01.285344,14.02522117,.0078527,99.2210,59.5871,13.6562,346.6703,0,U,31474,999,70410,.26061E-3,.366E-5,0
FENGYUN 1C DEB,1999-025BVP,2021-02-27T15:54:31.440096,14.26820680,.0244521,99.0114,219.8259,155.6457,205.6511,0,U,31475,999,71065,.14827E-3,.44E-5,0
FENGYUN 1C DEB,1999-025BVQ,2021-03-01T10:04:20.061696,14.11265787,.0061836,99.0262,105.3659,88.9680,27.5051,0,U,31476,999,70986,.40173E-3,.694E-5,0
FENGYUN 1C DEB,1999-025BVR,2021-03-01T11:36:02.991744,14.01391948,.0117311,98.8590,79.1364,212.8502,146.5334,0,U,31477,999,70921,.21012E-3,.293E-5,0
FENGYUN 1C DEB,1999-025BVS,2021-02-28T13:22:47.078976,14.39831376,.0041032,102.5835,185.4918,298.0676,123.7278,0,U,31478,999,40122,.59592E-3,.1808E-4,0
FENGYUN 1C DEB,1999-025BVU,2021-03-01T08:16:51.527712,13.67068408,.0410861,98.3566,102.3116,275.2362,80.2041,0,U,31480,999,69376,.4587E-3,.65E-5,0
FENGYUN 1C DEB,1999-025BVV,2021-02-28T23:22:43.855680,14.73170801,.0050748,99.2437,252.6244,163.1698,197.1204,0,U,31481,999,73269,.56568E-3,.3658E-4,0
FENGYUN 1C DEB,1999-025BVW,2021-02-28T23:21:31.082688,14.27673496,.010091,98.4914,97.9848,49.4281,67.0829,0,U,31482,999,72142,.14698E-3,.34E-5,0
FENGYUN 1C DEB,1999-025BVX,2021-03-01T05:11:56.254848,13.95954601,.0154373,102.5151,62.7885,134.2185,290.0766,0,U,31483,999,70202,.74098E-3,.1049E-4,0
FENGYUN 1C DEB,1999-025BVY,2021-03-01T01:07:27.216192,14.04946109,.0163827,101.8168,120.7221,320.0088,38.9097,0,U,31484,999,39458,.91731E-3,.1595E-4,0
FENGYUN 1C DEB,1999-025BVZ,2021-03-01T05:50:38.254848,13.27236326,.0510043,102.7178,169.2839,88.1434,277.7993,0,U,31485,999,67181,-.30226E-4,-.87E-6,0
FENGYUN 1C DEB,1999-025BWA,2021-02-28T08:01:53.510304,14.27822925,.0022308,102.2744,258.2913,110.5297,249.8267,0,U,31486,999,71662,.60555E-3,.1425E-4,0
FENGYUN 1C DEB,1999-025BWB,2021-03-01T14:48:14.181120,13.89467085,.0129189,102.4235,340.1083,165.0262,316.2983,0,U,31487,999,70094,.33728E-3,.37E-5,0
FENGYUN 1C DEB,1999-025BWC,2021-02-28T14:11:10.056768,14.39006276,.0086459,102.6743,203.8727,182.0816,178.0007,0,U,31488,999,72069,.63208E-3,.1954E-4,0
FENGYUN 1C DEB,1999-025BWE,2021-02-27T10:20:31.593408,14.05659602,.0061554,99.3807,238.9879,86.5456,274.2748,0,U,31491,999,39079,.57955E-3,.913E-5,0
FENGYUN 1C DEB,1999-025BWF,2021-02-28T04:35:51.660960,14.24664830,.0141219,98.8286,153.6639,139.4816,221.6979,0,U,31492,999,71379,.3489E-3,.855E-5,0
FENGYUN 1C DEB,1999-025BWG,2021-02-28T02:07:54.486912,13.88168229,.0124849,100.1300,186.2811,71.1722,290.2925,0,U,31493,999,35573,.24034E-3,.255E-5,0
FENGYUN 1C DEB,1999-025BWH,2021-02-28T17:21:43.879392,14.32842313,.0033838,99.6140,239.4620,190.0435,170.0073,0,U,31494,999,35930,.36528E-3,.95E-5,0
FENGYUN 1C DEB,1999-025BWJ,2021-02-28T02:55:32.042496,14.16785941,.0033755,99.1196,207.1906,119.7634,240.6904,0,U,31495,999,38551,.33092E-3,.62E-5,0
FENGYUN 1C DEB,1999-025BWK,2021-03-01T01:51:01.194624,15.16667088,.0100108,99.1144,160.1879,220.9061,138.4626,0,U,31496,999,74725,.21344E-3,.4645E-4,0
FENGYUN 1C DEB,1999-025BWL,2021-02-28T20:48:54.078912,14.35981755,.0175832,98.3104,79.3851,182.2591,302.1677,0,U,31497,999,72450,.22693E-4,.31E-6,0
FENGYUN 1C DEB,1999-025BWM,2021-02-28T03:50:40.644960,13.69215848,.0239197,98.4894,207.2679,148.9938,212.5585,0,U,31498,999,68755,.40825E-3,.397E-5,0
FENGYUN 1C DEB,1999-025BWN,2021-03-01T01:35:46.831200,13.77642036,.0327064,97.6678,162.0691,58.4484,304.8174,0,U,31499,999,38161,.63084E-3,.907E-5,0
FENGYUN 1C DEB,1999-025BWP,2021-03-01T14:04:27.412032,15.10333430,.0197289,98.9079,105.8738,162.7611,198.0443,0,U,31500,999,50010,.47813E-3,.1243E-3,0
FENGYUN 1C DEB,1999-025BWQ,2021-02-28T09:12:08.023680,14.15143480,.0042017,98.8986,112.3396,320.8066,39.0067,0,U,31501,999,38640,.29127E-3,.525E-5,0
FENGYUN 1C DEB,1999-025BWR,2021-02-23T21:52:12.208224,14.02631328,.0082095,99.1850,108.5800,71.8355,289.1728,0,U,31502,999,35929,.31419E-3,.454E-5,0
FENGYUN 1C DEB,1999-025BWS,2021-02-28T15:33:04.759200,14.13212469,.0056146,100.1155,29.0846,294.5254,65.0067,0,U,31503,999,39496,.26811E-3,.454E-5,0
FENGYUN 1C DEB,1999-025BWT,2021-02-28T13:19:07.963392,14.44877713,.0147659,101.5123,282.4326,341.7710,47.8287,0,U,31504,999,71914,.7288E-3,.2818E-4,0
FENGYUN 1C DEB,1999-025BWU,2021-02-27T16:54:20.191968,14.29831314,.0047935,101.9313,55.2742,17.2244,343.0539,0,U,31505,999,71383,.6419E-3,.1598E-4,0
FENGYUN 1C DEB,1999-025BWW,2021-03-01T08:38:07.080288,14.44007414,.0131755,98.4042,106.4106,1.5399,58.8342,0,U,31507,999,72753,.74799E-4,.235E-5,0
FENGYUN 1C DEB,1999-025BWX,2021-03-01T03:31:42.591072,14.30020828,.0058336,98.7056,130.0270,135.7555,224.8313,0,U,31508,999,71779,.37451E-3,.94E-5,0
FENGYUN 1C DEB,1999-025BWY,2021-02-28T16:44:03.086880,13.85502328,.0225697,98.9121,220.7010,285.9881,71.6520,0,U,31509,999,69695,.35111E-3,.445E-5,0
FENGYUN 1C DEB,1999-025BWZ,2021-03-01T07:23:27.179808,14.19844888,.0039444,98.6168,89.6737,0.3669,60.2359,0,U,31510,999,71661,.10794E-3,.188E-5,0
FENGYUN 1C DEB,1999-025BXA,2021-02-28T02:36:55.063296,14.14575824,.0135274,98.9938,171.8924,173.2389,187.0650,0,U,31511,999,70991,.31641E-3,.619E-5,0
FENGYUN 1C DEB,1999-025BXB,2021-02-28T16:43:01.329024,14.35559532,.0161025,98.9236,231.0202,271.5038,147.1329,0,U,31512,999,40371,.77164E-4,.203E-5,0
FENGYUN 1C DEB,1999-025BXC,2021-02-26T15:04:08.460480,14.15131008,.0037116,98.9298,122.7285,108.2413,252.2805,0,U,31513,999,48013,.41307E-3,.762E-5,0
FENGYUN 1C DEB,1999-025BXD,2021-02-28T10:37:06.001248,14.09446982,.0060094,99.3043,232.2680,334.9125,24.9126,0,U,31514,999,44624,.29455E-3,.475E-5,0
FENGYUN 1C DEB,1999-025BXE,2021-03-01T11:36:50.591232,14.04403510,.0057796,98.9724,147.5988,357.1310,2.9518,0,U,31515,999,33799,.27377E-4,0,0
FENGYUN 1C DEB,1999-025BXF,2021-03-01T05:11:41.344800,14.20871263,.015744,98.7640,159.4360,244.2500,144.8610,0,U,31516,999,71647,.93631E-4,.183E-5,0
FENGYUN 1C DEB,1999-025BXJ,2021-03-01T07:18:09.929376,14.19097107,.0054953,98.6159,87.8432,262.4638,97.0293,0,U,31519,999,39954,.91491E-4,.151E-5,0
FENGYUN 1C DEB,1999-025BXK,2021-03-01T01:57:32.044032,14.33454379,.0004667,98.8478,155.3380,121.2242,238.9399,0,U,31520,999,39714,.59179E-3,.1588E-4,0
FENGYUN 1C DEB,1999-025BXL,2021-03-01T11:20:18.719232,14.39517156,.0074684,98.6653,155.0337,317.2178,42.3211,0,U,31521,999,1842,.40121E-3,.1246E-4,0
FENGYUN 1C DEB,1999-025BXM,2021-03-01T09:22:05.332800,14.00629270,.0046923,98.9029,119.5095,33.4904,326.9213,0,U,31522,999,70514,.1305E-3,.153E-5,0
FENGYUN 1C DEB,1999-025BXN,2021-02-28T07:33:42.278688,14.13653048,.0038982,99.0106,96.7232,30.9753,27.2543,0,U,31523,999,71303,.8375E-5,-.29E-6,0
FENGYUN 1C DEB,1999-025BXP,2021-02-24T16:24:12.955392,14.03444965,.028821,99.3578,217.2856,275.5360,93.0127,0,U,31524,999,38551,.83707E-5,-.34E-6,0
FENGYUN 1C DEB,1999-025BXS,2021-03-01T01:29:17.988864,13.21746866,.0454358,98.9018,95.2102,235.6634,120.0707,0,U,31527,999,67090,.13414E-3,.58E-6,0
FENGYUN 1C DEB,1999-025BXU,2021-03-01T09:55:58.257408,14.20358117,.0048766,98.8717,120.0404,356.4139,68.7538,0,U,31529,999,39946,.35313E-3,.72E-5,0
FENGYUN 1C DEB,1999-025BXV,2021-02-08T13:30:55.829952,14.47901559,.0101146,99.3515,161.9189,323.5951,35.8388,0,U,31530,999,72499,.41853E-3,.1595E-4,0
FENGYUN 1C DEB,1999-025BXW,2021-02-28T10:57:09.224928,14.23370453,.028282,98.5921,129.9021,9.2447,351.3786,0,U,31531,999,38988,.10988E-3,.325E-5,0
FENGYUN 1C DEB,1999-025BXX,2021-03-01T06:59:30.798816,14.25104522,.0138536,99.1718,231.9072,211.9198,147.3531,0,U,31532,999,39705,.91749E-3,.233E-4,0
FENGYUN 1C DEB,1999-025BXY,2021-02-28T16:51:01.736352,14.24034834,.0067838,99.0956,234.8678,337.9205,21.9053,0,U,31533,999,41221,.80613E-4,.142E-5,0
FENGYUN 1C DEB,1999-025BXZ,2021-02-25T15:30:25.231104,14.29822463,.0020963,98.9807,206.2724,117.1461,243.1860,0,U,31534,999,40261,.63125E-3,.158E-4,0
FENGYUN 1C DEB,1999-025BYA,2021-02-20T03:51:28.821600,14.21509975,.0096045,98.0772,17.1012,306.3277,52.9064,0,U,31535,999,46931,.12492E-3,.247E-5,0
FENGYUN 1C DEB,1999-025BYB,2021-03-01T08:14:28.525344,14.18397580,.042319,98.1824,30.4280,318.0919,38.8571,0,U,31536,999,71258,.27253E-3,.1323E-4,0
FENGYUN 1C DEB,1999-025BYC,2021-02-28T04:41:28.257216,13.78276364,.0512863,99.1868,188.2102,34.3775,79.7181,0,U,31537,999,68956,.35818E-3,.924E-5,0
FENGYUN 1C DEB,1999-025BYD,2021-02-28T19:36:13.945248,14.36552990,.0058838,98.3568,284.9833,244.4197,115.0901,0,U,31538,999,41632,.38027E-3,.1097E-4,0
FENGYUN 1C DEB,1999-025BYF,2021-03-01T05:10:09.102432,14.45582505,.0233494,99.1006,62.9880,156.1116,205.1121,0,U,31540,999,72941,.79241E-4,.328E-5,0
FENGYUN 1C DEB,1999-025BYG,2021-02-28T10:00:40.442400,14.49061833,.011234,99.0246,49.3718,129.5729,231.5451,0,U,31541,999,72999,.10683E-3,.384E-5,0
FENGYUN 1C DEB,1999-025BYH,2021-02-28T08:32:51.680544,14.12394581,.0054277,98.8817,111.6677,159.8923,200.4404,0,U,31542,999,71194,.33181E-3,.576E-5,0
FENGYUN 1C DEB,1999-025BYK,2021-02-28T09:32:29.997888,14.08980934,.0035731,99.0087,101.9418,159.9960,200.2619,0,U,31544,999,71102,.27228E-3,.429E-5,0
FENGYUN 1C DEB,1999-025BYM,2021-03-01T00:22:35.022432,13.98242717,.0178678,98.2029,273.1517,66.6774,295.3082,0,U,31546,999,70271,.68632E-3,.1085E-4,0
